TEVEL2-6                
1 63215U 25052F   26068.64958975  .00021046  00000+0  70909-3 0  9996
2 63215  97.4016 325.0381 0004769  95.6604 264.5181 15.30760889 54861
STARLINK-33815          
1 63497U 25071E   26068.47234660  .00018500  00000+0  63531-3 0  9992
2 63497  53.1584 141.1464 0001162  71.7777 288.3350 15.30192762 52736
